NORAD_CAT_ID,OBJECT_NAME,OBJECT_TYPE,EPOCH,MEAN_MOTION,ECCENTRICITY,INCLINATION,RA_OF_ASC_NODE,ARG_OF_PERICENTER,MEAN_ANOMALY,BSTAR,MEAN_MOTION_DOT,MEAN_MOTION_DDOT,TLE_LINE0,TLE_LINE1,TLE_LINE2,SEMIMAJOR_AXIS,PERIOD,APOGEE,PERIGEE,DECAYED
55760.0,STARLINK-5532,PAYLOAD,2023-06-04 14:31:37,14.98330074,0.0003191,69.9995,268.529,269.1495,90.9298,4.4871e-05,4.42e-06,0.0,0 STARLINK-5532,1 55760U 23028V   23155.60528939  .00000442  00000-0  44871-4 0  9994,2 55760  69.9995 268.5290 0003191 269.1495  90.9298 14.98330074 14892,6950.193,96.107,574.275,569.84,0.0
55760.0,STARLINK-5532,PAYLOAD,2023-06-04 17:43:52,14.9833272,0.0003174,69.9996,268.1923,269.1297,90.9498,7.2021e-05,7.66e-06,0.0,0 STARLINK-5532,1 55760U 23028V   23155.73880677  .00000766  00000-0  72021-4 0  9995,2 55760  69.9996 268.1923 0003174 269.1297  90.9498 14.98332720 14918,6950.184,96.107,574.255,569.843,0.0
55760.0,STARLINK-5532,PAYLOAD,2023-06-05 09:45:13,14.98333207,0.0003128,69.9996,266.509,268.6367,91.4434,-5.9698e-06,-1.64e-06,0.0,0 STARLINK-5532,1 55760U 23028V   23156.40640770 -.00000164  00000-0 -59698-5 0  9998,2 55760  69.9996 266.5090 0003128 268.6367  91.4434 14.98333207 15004,6950.183,96.107,574.222,569.874,0.0
55760.0,STARLINK-5532,PAYLOAD,2023-06-05 12:57:29,14.98333375,0.0003128,69.9996,266.1723,268.736,91.3441,-3.3273e-06,-1.33e-06,0.0,0 STARLINK-5532,1 55760U 23028V   23156.53992724 -.00000133  00000-0 -33273-5 0  9998,2 55760  69.9996 266.1723 0003128 268.7360  91.3441 14.98333375 15033,6950.182,96.107,574.221,569.873,0.0
55760.0,STARLINK-5532,PAYLOAD,2023-06-05 17:45:53,14.98334033,0.0003079,69.9998,265.6675,265.84,94.2407,1.1979e-05,5e-07,0.0,0 STARLINK-5532,1 55760U 23028V   23156.74020577  .00000050  00000-0  11979-4 0  9993,2 55760  69.9998 265.6675 0003079 265.8400  94.2407 14.98334033 15062,6950.18,96.107,574.185,569.905,0.0
55760.0,STARLINK-5532,PAYLOAD,2023-06-06 11:23:22,14.98329225,0.0003083,69.9999,263.8161,267.8872,92.1934,-4.8126e-05,-6.67e-06,0.0,0 STARLINK-5532,1 55760U 23028V   23157.47456969 -.00000667  00000-0 -48126-4 0  9992,2 55760  69.9999 263.8161 0003083 267.8872  92.1934 14.98329225 15174,6950.195,96.107,574.203,569.918,0.0
55760.0,STARLINK-5532,PAYLOAD,2023-06-06 14:35:38,14.98330625,0.0003062,70.0,263.4795,267.5796,92.5013,-2.7328e-05,-4.19e-06,0.0,0 STARLINK-5532,1 55760U 23028V   23157.60808812 -.00000419  00000-0 -27328-4 0  9991,2 55760  70.0000 263.4795 0003062 267.5796  92.5013 14.98330625 15187,6950.191,96.107,574.184,569.928,0.0
55760.0,STARLINK-5532,PAYLOAD,2023-06-06 16:11:46,14.98331224,0.0003054,70.0,263.3112,267.5304,92.5505,-1.9734e-05,-3.28e-06,0.0,0 STARLINK-5532,1 55760U 23028V   23157.67484747 -.00000328  00000-0 -19734-4 0  9996,2 55760  70.0000 263.3112 0003054 267.5304  92.5505 14.98331224 15200,6950.189,96.107,574.177,569.932,0.0
55760.0,STARLINK-5532,PAYLOAD,2023-06-07 08:13:07,14.98330446,0.000303,70.0001,261.6283,268.011,92.0702,-2.3062e-05,-3.68e-06,0.0,0 STARLINK-5532,1 55760U 23028V   23158.34244778 -.00000368  00000-0 -23062-4 0  9992,2 55760  70.0001 261.6283 0003030 268.0110  92.0702 14.98330446 15306,6950.192,96.107,574.162,569.951,0.0
55760.0,STARLINK-5532,PAYLOAD,2023-06-08 00:14:28,14.98328487,0.000316,69.9998,259.945,271.9884,88.0913,-3.6169e-05,-5.25e-06,0.0,0 STARLINK-5532,1 55760U 23028V   23159.01004946 -.00000525  00000-0 -36169-4 0  9995,2 55760  69.9998 259.9450 0003160 271.9884  88.0913 14.98328487 15399,6950.198,96.107,574.259,569.866,0.0
55760.0,STARLINK-5532,PAYLOAD,2023-06-08 11:27:24,14.98327472,0.0003262,69.9994,258.7664,271.4712,88.6073,3.141e-05,2.82e-06,0.0,0 STARLINK-5532,1 55760U 23028V   23159.47736831  .00000282  00000-0  31410-4 0  9992,2 55760  69.9994 258.7664 0003262 271.4712  88.6073 14.98327472 15472,6950.201,96.107,574.333,569.799,0.0
55760.0,STARLINK-5532,PAYLOAD,2023-06-08 13:03:32,14.9833014,0.0003304,69.9993,258.5978,271.3589,88.7192,-4.7488e-06,-1.5e-06,0.0,0 STARLINK-5532,1 55760U 23028V   23159.54412767 -.00000150  00000-0 -47488-5 0  9998,2 55760  69.9993 258.5978 0003304 271.3589  88.7192 14.98330140 15485,6950.192,96.107,574.354,569.761,0.0
55760.0,STARLINK-5532,PAYLOAD,2023-06-09 06:41:01,14.98330016,0.0003284,69.9994,256.7459,271.0845,88.9938,2.562e-05,2.13e-06,0.0,0 STARLINK-5532,1 55760U 23028V   23160.27848643  .00000213  00000-0  25620-4 0  9997,2 55760  69.9994 256.7459 0003284 271.0845  88.9938 14.98330016 15582,6950.193,96.107,574.34,569.775,0.0
55760.0,STARLINK-5532,PAYLOAD,2023-06-09 13:05:33,14.98332618,0.0003294,69.9993,256.0727,271.1274,88.9507,5.1625e-05,5.23e-06,0.0,0 STARLINK-5532,1 55760U 23028V   23160.54552381  .00000523  00000-0  51625-4 0  9996,2 55760  69.9993 256.0727 0003294 271.1274  88.9507 14.98332618 15638,6950.185,96.107,574.339,569.76,0.0
55760.0,STARLINK-5532,PAYLOAD,2023-06-09 16:17:49,14.98332963,0.0003291,69.9994,255.736,271.1961,88.8821,5.3408e-05,5.44e-06,0.0,0 STARLINK-5532,1 55760U 23028V   23160.67904330  .00000544  00000-0  53408-4 0  9999,2 55760  69.9994 255.7360 0003291 271.1961  88.8821 14.98332963 15651,6950.184,96.107,574.336,569.761,0.0
55760.0,STARLINK-5532,PAYLOAD,2023-06-10 13:07:34,14.98329487,0.0003223,69.9996,253.5482,270.3261,89.7529,-1.5563e-05,-2.79e-06,0.0,0 STARLINK-5532,1 55760U 23028V   23161.54692743 -.00000279  00000-0 -15563-4 0  9995,2 55760  69.9996 253.5482 0003223 270.3261  89.7529 14.98329487 15789,6950.194,96.107,574.3,569.819,0.0
55760.0,STARLINK-5532,PAYLOAD,2023-06-10 14:43:42,14.983288,0.0003244,69.9997,253.38,270.2443,89.8345,-2.5126e-05,-3.93e-06,0.0,0 STARLINK-5532,1 55760U 23028V   23161.61368815 -.00000393  00000-0 -25126-4 0  9996,2 55760  69.9997 253.3800 0003244 270.2443  89.8345 14.98328800 15792,6950.197,96.107,574.316,569.807,0.0
55760.0,STARLINK-5532,PAYLOAD,2023-06-11 06:45:02,14.98333134,0.000326,69.9996,251.697,270.0505,90.0281,8.1816e-06,5e-08,0.0,0 STARLINK-5532,1 55760U 23028V   23162.28128403  .00000005  00000-0  81816-5 0  9994,2 55760  69.9996 251.6970 0003260 270.0505  90.0281 14.98333134 15895,6950.183,96.107,574.314,569.782,0.0
55760.0,STARLINK-5532,PAYLOAD,2023-06-11 13:09:35,14.9833349,0.0003259,69.9997,251.0237,270.0181,90.0605,1.3241e-05,6.5e-07,0.0,0 STARLINK-5532,1 55760U 23028V   23162.54832313  .00000065  00000-0  13241-4 0  9997,2 55760  69.9997 251.0237 0003259 270.0181  90.0605 14.98333490 15934,6950.182,96.107,574.312,569.782,0.0
55760.0,STARLINK-5532,PAYLOAD,2023-06-11 22:46:23,14.98333131,0.0003236,69.9998,250.014,270.4288,89.65,2.0248e-05,1.49e-06,0.0,0 STARLINK-5532,1 55760U 23028V   23162.94888223  .00000149  00000-0  20248-4 0  9990,2 55760  69.9998 250.0140 0003236 270.4288  89.6500 14.98333131 15989,6950.183,96.107,574.297,569.799,0.0
55760.0,STARLINK-5532,PAYLOAD,2023-06-12 11:35:28,14.98327221,0.0003227,70.0,248.6677,268.0462,92.0327,-8.7214e-06,-1.97e-06,0.0,0 STARLINK-5532,1 55760U 23028V   23163.48296666 -.00000197  00000-0 -87214-5 0  9996,2 55760  70.0000 248.6677 0003227 268.0462  92.0327 14.98327221 16070,6950.201,96.107,574.309,569.824,0.0
55760.0,STARLINK-5532,PAYLOAD,2023-06-13 05:12:56,14.98329365,0.0003447,69.9988,246.8156,269.6563,90.4201,-5.0443e-05,-6.95e-06,0.0,0 STARLINK-5532,1 55760U 23028V   23164.21732615 -.00000695  00000-0 -50443-4 0  9993,2 55760  69.9988 246.8156 0003447 269.6563  90.4201 14.98329365 16183,6950.195,96.107,574.456,569.664,0.0
55760.0,STARLINK-5532,PAYLOAD,2023-06-13 14:49:45,14.98331232,0.0003478,69.9988,245.8055,269.9494,90.1266,-5.1031e-05,-7.02e-06,0.0,0 STARLINK-5532,1 55760U 23028V   23164.61788465 -.00000702  00000-0 -51031-4 0  9994,2 55760  69.9988 245.8055 0003478 269.9494  90.1266 14.98331232 16230,6950.189,96.107,574.471,569.637,0.0
55760.0,STARLINK-5532,PAYLOAD,2023-06-14 03:38:49,14.98330583,0.0003415,69.999,244.459,267.8634,92.2133,-3.3241e-06,-1.33e-06,0.0,0 STARLINK-5532,1 55760U 23028V   23165.15196329 -.00000133  00000-0 -33241-5 0  9998,2 55760  69.9990 244.4590 0003415 267.8634  92.2133 14.98330583 16320,6950.191,96.107,574.43,569.683,0.0
55760.0,STARLINK-5532,PAYLOAD,2023-06-14 22:52:26,14.98325533,0.0003203,69.9997,242.4395,271.0905,88.9887,8.4857e-05,9.19e-06,0.0,0 STARLINK-5532,1 55760U 23028V   23165.95308556  .00000919  00000-0  84857-4 0  9991,2 55760  69.9997 242.4395 0003203 271.0905  88.9887 14.98325533 16430,6950.207,96.107,574.298,569.846,0.0
55760.0,STARLINK-5532,PAYLOAD,2023-06-15 13:17:39,14.98324326,0.0003222,69.9992,240.9241,267.7315,92.3475,2.0815e-05,1.55e-06,0.0,0 STARLINK-5532,1 55760U 23028V   23166.55392827  .00000155  00000-0  20815-4 0  9998,2 55760  69.9992 240.9241 0003222 267.7315  92.3475 14.98324326 16538,6950.21,96.107,574.315,569.836,0.0
55760.0,STARLINK-5532,PAYLOAD,2023-06-15 14:53:47,14.98325274,0.0003244,69.9992,240.7559,267.3165,92.7622,2.1362e-05,1.62e-06,0.0,0 STARLINK-5532,1 55760U 23028V   23166.62068787  .00000162  00000-0  21362-4 0  9997,2 55760  69.9992 240.7559 0003244 267.3165  92.7622 14.98325274 16543,6950.208,96.107,574.327,569.818,0.0
55760.0,STARLINK-5532,PAYLOAD,2023-06-15 22:54:27,14.98317699,0.0003195,69.9991,239.9141,276.6867,83.3928,0.00024861,2.874e-05,0.0,0 STARLINK-5532,1 55760U 23028V   23166.95448897  .00002874  00000-0  24861-3 0  9995,2 55760  69.9991 239.9141 0003195 276.6867  83.3928 14.98317699 16587,6950.231,96.108,574.317,569.875,0.0
55760.0,STARLINK-5532,PAYLOAD,2023-06-16 11:43:30,14.9834377,0.0003376,69.9991,238.5676,270.0457,90.0316,7.8508e-05,8.44e-06,0.0,0 STARLINK-5532,1 55760U 23028V   23167.48855262  .00000844  00000-0  78508-4 0  9995,2 55760  69.9991 238.5676 0003376 270.0457  90.0316 14.98343770 16663,6950.15,96.106,574.362,569.669,0.0
55760.0,STARLINK-5532,PAYLOAD,2023-06-16 13:19:39,14.98312886,0.0003213,69.9991,238.3992,271.7833,88.2958,0.0006246,7.364e-05,0.0,0 STARLINK-5532,1 55760U 23028V   23167.55531951  .00007364  00000-0  62460-3 0  9992,2 55760  69.9991 238.3992 0003213 271.7833  88.2958 14.98312886 16674,6950.246,96.108,574.344,569.878,0.0
